{
    "links": {
        "self": "http://www.neowsapp.com/rest/v1/neo/3760340?api_key=iIulBulltgU6a56xZRHN4H3l9WmuAYTsLGpBGhQ2"
    },
    "id": "3760340",
    "neo_reference_id": "3760340",
    "name": "(2016 TR2)",
    "designation": "2016 TR2",
    "nasa_jpl_url": "http://ssd.jpl.nasa.gov/sbdb.cgi?sstr=3760340",
    "absolute_magnitude_h": 26.3,
    "estimated_diameter": {
        "kilometers": {
            "estimated_diameter_min": 0.0146067964,
            "estimated_diameter_max": 0.0326617897
        },
        "meters": {
            "estimated_diameter_min": 14.6067964271,
            "estimated_diameter_max": 32.6617897446
        },
        "miles": {
            "estimated_diameter_min": 0.0090762397,
            "estimated_diameter_max": 0.020295089
        },
        "feet": {
            "estimated_diameter_min": 47.92256199,
            "estimated_diameter_max": 107.1581062656
        }
    },
    "is_potentially_hazardous_asteroid": false,
    "close_approach_data": [
        {
            "close_approach_date": "2016-09-25",
            "close_approach_date_full": "2016-Sep-25 06:59",
            "epoch_date_close_approach": 1474786740000,
            "relative_velocity": {
                "kilometers_per_second": "8.6776145891",
                "kilometers_per_hour": "31239.4125209168",
                "miles_per_hour": "19410.9560744552"
            },
            "miss_distance": {
                "astronomical": "0.0173217434",
                "lunar": "6.7381581826",
                "kilometers": "2591295.917326558",
                "miles": "1610156.6190721804"
            },
            "orbiting_body": "Earth"
        }
    ],
    "orbital_data": {
        "orbit_id": "3",
        "orbit_determination_date": "2019-07-10 05:35:58",
        "first_observation_date": "2016-09-30",
        "last_observation_date": "2016-10-05",
        "data_arc_in_days": 5,
        "observations_used": 16,
        "orbit_uncertainty": "8",
        "minimum_orbit_intersection": ".0136788",
        "jupiter_tisserand_invariant": "4.047",
        "epoch_osculation": "2457662.5",
        "eccentricity": ".4376252676411518",
        "semi_major_axis": "1.725090593141307",
        "inclination": "5.385022358391758",
        "ascending_node_longitude": "7.683970127191418",
        "orbital_period": "827.5920066394426",
        "perihelion_distance": ".9701473606126093",
        "perihelion_argument": "323.2233480047287",
        "aphelion_distance": "2.480033825670005",
        "perihelion_time": "2457630.986652343113",
        "mean_anomaly": "13.7082101632984",
        "mean_motion": ".4349969515315067",
        "equinox": "J2000",
        "orbit_class": {
            "orbit_class_type": "APO",
            "orbit_class_description": "Near-Earth asteroid orbits which cross the Earth’s orbit similar to that of 1862 Apollo",
            "orbit_class_range": "a (semi-major axis) > 1.0 AU; q (perihelion) < 1.017 AU"
        }
    },
    "is_sentry_object": false
}